{
  "norad_id": 59334,
  "name": "STARLINK-31573",
  "history": [
    {
      "epoch": "2026-03-28T10:52:53.322816Z",
      "apogee_km": 483.63598815075784,
      "perigee_km": 482.4270502576737,
      "latitude_deg": 2.9167255643241677e-05,
      "longitude_deg": 91.5807305057468,
      "height_km": 482.88775808594295,
      "semi_major_axis_km": 6861.168519204216,
      "eccentricity": 8.81e-05,
      "inclination_deg": 43.0021,
      "raan_deg": 80.6765,
      "arg_perigee_deg": 262.4164,
      "mean_anomaly_deg": 97.6588,
      "mean_motion_rev_day": 15.2758587
    },
    {
      "epoch": "2026-03-30T05:15:06.327936Z",
      "apogee_km": 483.86367123093714,
      "perigee_km": 482.2361976900838,
      "latitude_deg": 1.6810975069905186e-05,
      "longitude_deg": 164.3168443407889,
      "height_km": 482.8202856503694,
      "semi_major_axis_km": 6861.18693446051,
      "eccentricity": 0.0001186,
      "inclination_deg": 43.0039,
      "raan_deg": 70.7069,
      "arg_perigee_deg": 270.465,
      "mean_anomaly_deg": 89.6066,
      "mean_motion_rev_day": 15.2757972
    },
    {
      "epoch": "2026-03-30T09:57:33.942816Z",
      "apogee_km": 483.74375167177914,
      "perigee_km": 482.3215684246443,
      "latitude_deg": -2.243312837081685e-05,
      "longitude_deg": 92.40080355134145,
      "height_km": 482.7475549068878,
      "semi_major_axis_km": 6861.169660048211,
      "eccentricity": 0.00010364,
      "inclination_deg": 43.0034,
      "raan_deg": 69.5993,
      "arg_perigee_deg": 274.9925,
      "mean_anomaly_deg": 85.0808,
      "mean_motion_rev_day": 15.27585489
    },
    {
      "epoch": "2026-03-31T00:04:59.195424Z",
      "apogee_km": 483.7530051254871,
      "perigee_km": 482.3927016599537,
      "latitude_deg": 3.874488882165135e-06,
      "longitude_deg": -123.36012589465678,
      "height_km": 483.1854243501019,
      "semi_major_axis_km": 6861.20985339272,
      "eccentricity": 9.913e-05,
      "inclination_deg": 43.0024,
      "raan_deg": 66.2736,
      "arg_perigee_deg": 240.3846,
      "mean_anomaly_deg": 119.6907,
      "mean_motion_rev_day": 15.27572066
    },
    {
      "epoch": "2026-04-01T05:53:57.806016Z",
      "apogee_km": 483.88094812693,
      "perigee_km": 482.2520984105058,
      "latitude_deg": -4.4446677842800066e-05,
      "longitude_deg": 141.157302346256,
      "height_km": 482.94096675763075,
      "semi_major_axis_km": 6861.203523268718,
      "eccentricity": 0.0001187,
      "inclination_deg": 43.005,
      "raan_deg": 59.2598,
      "arg_perigee_deg": 263.1328,
      "mean_anomaly_deg": 96.9388,
      "mean_motion_rev_day": 15.2757418
    },
    {
      "epoch": "2026-04-02T08:34:36.511392Z",
      "apogee_km": 483.8237617000268,
      "perigee_km": 482.233755147171,
      "latitude_deg": -1.535311395520383e-05,
      "longitude_deg": 93.62115951397836,
      "height_km": 482.85955367882923,
      "semi_major_axis_km": 6861.165758423599,
      "eccentricity": 0.00011587,
      "inclination_deg": 43.0056,
      "raan_deg": 52.9805,
      "arg_perigee_deg": 266.1282,
      "mean_anomaly_deg": 93.9437,
      "mean_motion_rev_day": 15.27586792
    },
    {
      "epoch": "2026-04-03T20:40:13.976832Z",
      "apogee_km": 483.7525514081326,
      "perigee_km": 482.3899154529727,
      "latitude_deg": -6.0578391963873734e-05,
      "longitude_deg": -97.75831157053196,
      "height_km": 482.84664283341453,
      "semi_major_axis_km": 6861.208233430552,
      "eccentricity": 9.93e-05,
      "inclination_deg": 43.005,
      "raan_deg": 44.4895,
      "arg_perigee_deg": 270.1269,
      "mean_anomaly_deg": 89.9468,
      "mean_motion_rev_day": 15.27572607
    },
    {
      "epoch": "2026-04-04T06:05:10.264128Z",
      "apogee_km": 483.93539490523017,
      "perigee_km": 482.1938847050151,
      "latitude_deg": -2.6358894415130817e-05,
      "longitude_deg": 118.40530786173073,
      "height_km": 482.7327894643865,
      "semi_major_axis_km": 6861.201639805122,
      "eccentricity": 0.00012691,
      "inclination_deg": 43.0059,
      "raan_deg": 42.2743,
      "arg_perigee_deg": 277.1984,
      "mean_anomaly_deg": 82.8723,
      "mean_motion_rev_day": 15.27574809
    },
    {
      "epoch": "2026-04-05T04:03:20.734272Z",
      "apogee_km": 483.68219753746143,
      "perigee_km": 482.4464951749833,
      "latitude_deg": 3.199346964608949e-05,
      "longitude_deg": 142.79198508019496,
      "height_km": 482.6915778009869,
      "semi_major_axis_km": 6861.201346356222,
      "eccentricity": 9.005e-05,
      "inclination_deg": 43.0055,
      "raan_deg": 37.1068,
      "arg_perigee_deg": 284.0167,
      "mean_anomaly_deg": 76.0585,
      "mean_motion_rev_day": 15.27574907
    },
    {
      "epoch": "2026-04-06T05:09:53.305920Z",
      "apogee_km": 483.7739658061482,
      "perigee_km": 482.5160183657199,
      "latitude_deg": 2.1647090009028945e-05,
      "longitude_deg": 119.21666487792659,
      "height_km": 482.90781365105624,
      "semi_major_axis_km": 6861.281992085934,
      "eccentricity": 9.167e-05,
      "inclination_deg": 43.0077,
      "raan_deg": 31.1984,
      "arg_perigee_deg": 271.305,
      "mean_anomaly_deg": 88.7697,
      "mean_motion_rev_day": 15.27547975
    },
    {
      "epoch": "2026-04-07T03:08:05.250048Z",
      "apogee_km": 484.3075286883577,
      "perigee_km": 481.9066421579864,
      "latitude_deg": 2.0379588436096086e-05,
      "longitude_deg": 143.5939187947258,
      "height_km": 483.50017839638514,
      "semi_major_axis_km": 6861.244085423172,
      "eccentricity": 0.00017496,
      "inclination_deg": 43.0076,
      "raan_deg": 26.0277,
      "arg_perigee_deg": 239.1517,
      "mean_anomaly_deg": 120.9163,
      "mean_motion_rev_day": 15.27560634
    },
    {
      "epoch": "2026-04-08T12:05:19.623840Z",
      "apogee_km": 484.5062904383303,
      "perigee_km": 481.5742349468919,
      "latitude_deg": -1.0753403661837072e-05,
      "longitude_deg": 0.17741830523511845,
      "height_km": 483.72211637653913,
      "semi_major_axis_km": 6861.177262692611,
      "eccentricity": 0.00021367,
      "inclination_deg": 43.0047,
      "raan_deg": 18.2745,
      "arg_perigee_deg": 231.9032,
      "mean_anomaly_deg": 128.1627,
      "mean_motion_rev_day": 15.2758295
    },
    {
      "epoch": "2026-04-09T11:37:41.137824Z",
      "apogee_km": 484.0223997723051,
      "perigee_km": 482.04501037510363,
      "latitude_deg": -5.104593083203731e-06,
      "longitude_deg": 0.5822546987924644,
      "height_km": 483.21533636201417,
      "semi_major_axis_km": 6861.170705073704,
      "eccentricity": 0.0001441,
      "inclination_deg": 43.004,
      "raan_deg": 12.7357,
      "arg_perigee_deg": 245.843,
      "mean_anomaly_deg": 114.2271,
      "mean_motion_rev_day": 15.2758514
    },
    {
      "epoch": "2026-04-10T03:19:14.906208Z",
      "apogee_km": 484.09995702474225,
      "perigee_km": 481.99453402716154,
      "latitude_deg": 4.79707533127739e-06,
      "longitude_deg": 120.85338498663107,
      "height_km": 483.2216282390924,
      "semi_major_axis_km": 6861.184245525952,
      "eccentricity": 0.00015343,
      "inclination_deg": 43.0053,
      "raan_deg": 9.042,
      "arg_perigee_deg": 247.8369,
      "mean_anomaly_deg": 112.232,
      "mean_motion_rev_day": 15.27580618
    },
    {
      "epoch": "2026-04-11T10:42:21.915936Z",
      "apogee_km": 484.3148172875872,
      "perigee_km": 481.7679478719738,
      "latitude_deg": -1.5577678823634958e-05,
      "longitude_deg": 1.4001056430612344,
      "height_km": 482.9552396824614,
      "semi_major_axis_km": 6861.17838257978,
      "eccentricity": 0.0001856,
      "inclination_deg": 43.004,
      "raan_deg": 1.6569,
      "arg_perigee_deg": 263.8524,
      "mean_anomaly_deg": 96.2116,
      "mean_motion_rev_day": 15.27582576
    },
    {
      "epoch": "2026-04-13T01:56:17.355552Z",
      "apogee_km": 484.1003225176428,
      "perigee_km": 482.0239864295172,
      "latitude_deg": -5.940334442648334e-05,
      "longitude_deg": 122.0727554734816,
      "height_km": 483.09887933569036,
      "semi_major_axis_km": 6861.19915447358,
      "eccentricity": 0.00015131,
      "inclination_deg": 43.0076,
      "raan_deg": 352.4218,
      "arg_perigee_deg": 255.5447,
      "mean_anomaly_deg": 104.5236,
      "mean_motion_rev_day": 15.27575639
    },
    {
      "epoch": "2026-04-13T22:20:18.949632Z",
      "apogee_km": 483.9110483856575,
      "perigee_km": 482.1930066531668,
      "latitude_deg": -5.604219126757403e-05,
      "longitude_deg": 170.4293011397404,
      "height_km": 483.0192998890619,
      "semi_major_axis_km": 6861.189027519412,
      "eccentricity": 0.0001252,
      "inclination_deg": 43.0061,
      "raan_deg": 347.6228,
      "arg_perigee_deg": 257.2173,
      "mean_anomaly_deg": 102.8538,
      "mean_motion_rev_day": 15.27579021
    },
    {
      "epoch": "2026-04-15T08:51:45.786816Z",
      "apogee_km": 484.01267515076233,
      "perigee_km": 482.09936286548145,
      "latitude_deg": 4.829099668294705e-06,
      "longitude_deg": 3.0276914440604896,
      "height_km": 482.8488276384989,
      "semi_major_axis_km": 6861.193019008122,
      "eccentricity": 0.00013943,
      "inclination_deg": 43.0054,
      "raan_deg": 339.5008,
      "arg_perigee_deg": 269.0709,
      "mean_anomaly_deg": 90.9983,
      "mean_motion_rev_day": 15.27577688
    },
    {
      "epoch": "2026-04-16T08:24:06.746976Z",
      "apogee_km": 484.0756449334749,
      "perigee_km": 482.1092165786213,
      "latitude_deg": 3.5565011549421774e-05,
      "longitude_deg": 3.4359733730084,
      "height_km": 482.84693175105065,
      "semi_major_axis_km": 6861.229430756048,
      "eccentricity": 0.0001433,
      "inclination_deg": 43.0039,
      "raan_deg": 333.9631,
      "arg_perigee_deg": 271.3208,
      "mean_anomaly_deg": 88.748,
      "mean_motion_rev_day": 15.27565528
    }
  ]
}